MEAN_MOTION;ECCENTRICITY;INCLINATION;RA_OF_ASC_NODE;ARG_OF_PERICENTER;MEAN_ANOMALY;BSTAR;MEAN_MOTION_DOT;MEAN_MOTION_DDOT;TYPE
14.40875134;0.0006985;98.698;114.723;195.2761;164.8217;1.5057E-5;2.0E-8;0;Amateur
14.40875163;0.0006995;98.698;114.8642;194.8734;165.225;1.5185E-5;3.0E-8;0;Amateur
14.40875237;0.0007036;98.6979;115.4998;192.8704;167.2305;1.5972E-5;5.0E-8;0;Amateur
14.4087528;0.0007062;98.6978;115.9236;191.5612;168.5415;1.6652E-5;7.0E-8;0;Amateur
14.40875366;0.0007116;98.6976;116.771;188.9662;171.14;1.8449E-5;1.3E-7;0;Amateur
14.40875446;0.0007154;98.6975;117.336;187.2474;172.8611;1.8628E-5;1.4E-7;0;Amateur
14.40875453;0.0007158;98.6975;117.4067;187.0341;173.0748;1.857E-5;1.4E-7;0;Amateur
14.40875547;0.0007225;98.6973;118.3953;184.0689;176.0442;1.8186E-5;1.2E-7;0;Amateur
14.40875547;0.0007225;98.6973;118.3953;184.0689;176.0442;1.8186E-5;1.2E-7;0;Amateur
14.40875694;0.0007311;98.6971;119.8078;179.8972;180.2218;1.7827E-5;1.1E-7;0;Amateur
14.40875636;0.0007325;98.697;119.9489;179.4754;180.6443;1.5114E-5;3.0E-8;0;Amateur
14.40875719;0.0007362;98.6969;120.5845;177.5911;182.5314;1.4431E-5;0;0;Amateur
14.40875818;0.0007414;98.6968;121.4319;175.142;184.9841;1.4265E-5;0;0;Amateur
14.40875851;0.000744;98.6967;121.8556;173.9819;186.146;1.4197E-5;0;0;Amateur
14.40875936;0.0007491;98.6966;122.6323;171.8844;188.2467;1.2504E-5;-6.0E-8;0;Amateur
14.40876041;0.0007544;98.6964;123.6209;169.0976;191.0376;1.2081E-5;-7.0E-8;0;Amateur
14.4087609;0.0007561;98.6963;124.1152;167.6841;192.4533;1.1915E-5;-8.0E-8;0;Amateur
14.40876163;0.0007589;98.6963;124.6096;166.2988;193.8407;1.3068E-5;-4.0E-8;0;Amateur
14.40876275;0.0007641;98.6962;125.6688;163.4975;196.6463;1.3048E-5;-4.0E-8;0;Amateur
14.40876314;0.0007691;98.696;126.5867;160.8984;199.2493;1.2358E-5;-6.0E-8;0;Amateur
14.40876323;0.0007709;98.6959;126.9398;159.9558;200.1934;1.2582E-5;-6.0E-8;0;Amateur
14.4087632;0.0007718;98.6959;127.081;159.5591;200.5907;1.1512E-5;-9.0E-8;0;Amateur
14.40876358;0.0007738;98.6958;127.5752;158.2017;201.9501;1.1725E-5;-8.0E-8;0;Amateur
14.40876336;0.0007753;98.6958;127.7164;157.8104;202.3421;1.0757E-5;-1.1E-7;0;Amateur
14.40876393;0.0007798;98.6957;128.5637;155.4392;204.7169;1.1156E-5;-1.0E-7;0;Amateur
14.40876406;0.0007805;98.6956;128.7049;155.0377;205.119;1.1696E-5;-8.0E-8;0;Amateur
14.40876492;0.0007859;98.6955;129.6934;152.2683;207.8926;1.2911E-5;-4.0E-8;0;Amateur
14.40876509;0.0007873;98.6954;129.9758;151.5409;208.621;1.3479E-5;-3.0E-8;0;Amateur
14.40876661;0.0007903;98.6953;130.7525;149.5577;210.6071;1.5708E-5;5.0E-8;0;Amateur
14.408768;0.0007959;98.695;132.0233;146.1791;213.9906;1.812E-5;1.2E-7;0;Amateur
14.40876799;0.0007963;98.695;132.1645;145.6809;214.4895;1.7335E-5;1.0E-7;0;Amateur
14.40876845;0.0007989;98.6949;132.6587;144.3526;215.8197;1.6697E-5;8.0E-8;0;Amateur
14.40876837;0.0007994;98.6949;132.7999;143.9644;216.2084;1.6333E-5;7.0E-8;0;Amateur
14.40876857;0.0008008;98.6948;133.1529;143.0023;217.1719;1.5796E-5;5.0E-8;0;Amateur
14.40876936;0.0008059;98.6946;134.2118;140.1848;219.9933;1.471E-5;1.0E-8;0;Amateur
14.4087701;0.0008093;98.6945;134.7766;138.6541;221.5261;1.5136E-5;3.0E-8;0;Amateur
14.40877129;0.0008134;98.6944;135.6944;136.2519;223.9315;1.4803E-5;2.0E-8;0;Amateur
14.40877143;0.0008137;98.6944;135.8356;135.8498;224.334;1.4789E-5;2.0E-8;0;Amateur
14.40877283;0.0008168;98.6942;136.7533;133.4203;226.7667;1.6151E-5;6.0E-8;0;Amateur
14.40877329;0.0008186;98.6941;137.1064;132.5462;227.6419;1.6835E-5;8.0E-8;0;Amateur
14.40877384;0.000819;98.6941;137.2476;132.1661;228.0224;1.7936E-5;1.2E-7;0;Amateur
14.40877449;0.0008213;98.694;137.8829;130.4886;229.7019;1.6935E-5;8.0E-8;0;Amateur
14.40877501;0.0008231;98.6939;138.3064;129.3991;230.7927;1.6657E-5;8.0E-8;0;Amateur
14.40877532;0.0008247;98.6939;138.8712;127.9336;232.2598;1.5038E-5;2.0E-8;0;Amateur
14.40877607;0.0008294;98.6937;140.1419;124.7127;235.4844;1.277E-5;-5.0E-8;0;Amateur
14.40877653;0.0008296;98.6936;140.2831;124.3624;235.8349;1.3184E-5;-4.0E-8;0;Amateur
14.40877867;0.0008353;98.6934;141.9067;120.1752;240.0265;1.5333E-5;3.0E-8;0;Amateur
14.40877889;0.000836;98.6933;142.1891;119.4713;240.731;1.5634E-5;4.0E-8;0;Amateur
14.40877968;0.0008381;98.6931;143.0361;117.3007;242.9035;1.5495E-5;4.0E-8;0;Amateur
14.40877994;0.0008384;98.6931;143.1772;116.9653;243.2392;1.6206E-5;6.0E-8;0;Amateur
14.40878086;0.0008401;98.693;143.9537;114.9545;245.2517;1.687E-5;8.0E-8;0;Amateur
14.40878138;0.0008418;98.6929;144.4479;113.6821;246.5251;1.7111E-5;9.0E-8;0;Amateur
14.40878192;0.000843;98.6928;144.9421;112.4143;247.7939;1.7489E-5;1.0E-7;0;Amateur
14.40878312;0.0008444;98.6927;145.7891;110.2478;249.9618;1.8516E-5;1.4E-7;0;Amateur
14.40878313;0.0008451;98.6926;146.0009;109.6796;250.5305;1.7771E-5;1.1E-7;0;Amateur
14.40878435;0.000846;98.6925;146.8479;107.5238;252.6875;1.908E-5;1.5E-7;0;Amateur
14.4087846;0.0008463;98.6924;147.2714;106.468;253.7438;1.9161E-5;1.6E-7;0;Amateur
14.40878557;0.000848;98.6922;148.2596;103.9424;256.2708;1.866E-5;1.4E-7;0;Amateur
14.40878637;0.0008481;98.6921;149.036;102.0198;258.194;1.7518E-5;1.0E-7;0;Amateur
14.40878688;0.0008481;98.692;149.4595;100.9426;259.2717;1.7319E-5;1.0E-7;0;Amateur
14.40878729;0.0008488;98.6919;150.0242;99.4993;260.7155;1.6015E-5;6.0E-8;0;Amateur
14.4087882;0.0008488;98.6919;150.5182;98.2367;261.9784;1.6864E-5;8.0E-8;0;Amateur
14.40878895;0.0008494;98.6918;151.0829;96.7644;263.4511;1.643E-5;7.0E-8;0;Amateur
14.40878992;0.0008507;98.6916;151.9299;94.6439;265.5721;1.6272E-5;6.0E-8;0;Amateur
14.40879024;0.0008503;98.6915;152.3534;93.5909;266.6251;1.621E-5;6.0E-8;0;Amateur
14.40879057;0.0008502;98.6914;153.1297;91.6426;268.5736;1.2788E-5;-5.0E-8;0;Amateur
14.40879041;0.0008507;98.6914;153.3414;91.0884;269.1279;1.1716E-5;-8.0E-8;0;Amateur
14.40879103;0.0008506;98.6913;153.9766;89.5132;270.7031;1.0966E-5;-1.1E-7;0;Amateur
14.40879097;0.0008506;98.6913;154.1178;89.1145;271.1018;1.0478E-5;-1.2E-7;0;Amateur
14.40879141;0.0008502;98.6912;154.5412;88.0668;272.1493;1.0523E-5;-1.2E-7;0;Amateur
14.40879175;0.0008504;98.6911;154.9647;87.0123;273.2038;1.023E-5;-1.3E-7;0;Amateur
14.40879272;0.0008495;98.691;156.0233;84.35;275.8656;1.0294E-5;-1.3E-7;0;Amateur
14.40879289;0.0008497;98.6909;156.1644;83.9608;276.2548;1.0776E-5;-1.1E-7;0;Amateur
14.40879425;0.0008481;98.6908;157.1524;81.4768;278.7381;1.373E-5;-2.0E-8;0;Amateur
14.40879492;0.0008471;98.6907;157.6464;80.2107;280.0038;1.4861E-5;2.0E-8;0;Amateur
14.40879528;0.0008461;98.6906;158.211;78.787;281.4268;1.4178E-5;0;0;Amateur
14.40879595;0.000845;98.6905;159.199;76.2509;283.9619;1.4434E-5;1.0E-8;0;Amateur
14.40879658;0.0008437;98.6904;160.187;73.7145;286.4971;1.3766E-5;-2.0E-8;0;Amateur
14.40879707;0.0008421;98.6902;160.6104;72.6433;287.5675;1.421E-5;0;0;Amateur
14.40879775;0.0008413;98.6902;161.2455;71.0262;289.1837;1.4758E-5;2.0E-8;0;Amateur
14.40879839;0.0008393;98.6901;161.6689;69.975;290.2341;1.5818E-5;5.0E-8;0;Amateur
14.40879927;0.0008369;98.6899;162.5157;67.8173;292.3902;1.7324E-5;1.0E-7;0;Amateur
14.40880004;0.0008358;98.6898;163.1508;66.1795;294.0269;1.679E-5;8.0E-8;0;Amateur
14.40880014;0.0008357;98.6898;163.2919;65.806;294.4;1.7004E-5;9.0E-8;0;Amateur
14.40880094;0.0008332;98.6897;164.1387;63.6467;296.5575;1.6719E-5;8.0E-8;0;Amateur
14.40880103;0.000833;98.6897;164.2798;63.271;296.933;1.6729E-5;8.0E-8;0;Amateur
14.40880165;0.0008315;98.6896;164.7738;61.9991;298.2037;1.7047E-5;9.0E-8;0;Amateur
14.40880208;0.0008304;98.6895;165.1971;60.9562;299.2457;1.6354E-5;7.0E-8;0;Amateur
14.40880208;0.0008302;98.6895;165.2677;60.7648;299.4369;1.6214E-5;6.0E-8;0;Amateur
14.40880342;0.000827;98.6894;166.3262;58.0211;302.1779;1.5716E-5;5.0E-8;0;Amateur
14.40880487;0.0008219;98.6892;167.5963;54.6784;305.5171;1.5996E-5;6.0E-8;0;Amateur
14.40880538;0.0008208;98.6892;167.8079;54.121;306.0739;1.6419E-5;7.0E-8;0;Amateur
14.40880571;0.0008186;98.6891;168.3724;52.6521;307.5411;1.4473E-5;1.0E-8;0;Amateur
14.40880665;0.0008151;98.689;169.3602;50.0742;310.1161;1.3648E-5;-2.0E-8;0;Amateur
14.4088074;0.0008106;98.6889;170.348;47.4918;312.6953;1.2184E-5;-7.0E-8;0;Amateur
14.4088076;0.0008089;98.6888;170.7714;46.3683;313.8175;1.1204E-5;-1.0E-7;0;Amateur
14.40880847;0.0008063;98.6887;171.4064;44.7045;315.4791;1.2121E-5;-7.0E-8;0;Amateur
14.40880959;0.0008022;98.6886;172.2531;42.5063;317.6745;1.3985E-5;-1.0E-8;0;Amateur
14.40880957;0.0008019;98.6886;172.3237;42.3156;317.8649;1.3723E-5;-2.0E-8;0;Amateur
14.40881004;0.0008001;98.6885;172.6764;41.343;318.8363;1.5488E-5;4.0E-8;0;Amateur
14.40881102;0.0007969;98.6885;173.3114;39.6572;320.5197;1.6108E-5;6.0E-8;0;Amateur
14.40881086;0.0007963;98.6884;173.4526;39.256;320.9204;1.5082E-5;3.0E-8;0;Amateur
14.40881177;0.000791;98.6883;174.4403;36.6408;323.532;1.556E-5;4.0E-8;0;Amateur
14.40881241;0.0007881;98.6882;174.9342;35.2901;324.8808;1.689E-5;8.0E-8;0;Amateur
14.40881392;0.0007859;98.6882;175.4281;33.9773;326.1917;2.1567E-5;2.3E-7;0;Amateur
14.40881478;0.000781;98.688;176.4864;31.1422;329.0228;1.9447E-5;1.7E-7;0;Amateur
14.40881597;0.0007766;98.6879;177.4741;28.4262;331.7348;2.0204E-5;1.9E-7;0;Amateur
14.40881712;0.0007731;98.6878;177.968;27.0331;333.1258;2.2232E-5;2.5E-7;0;Amateur
14.40881751;0.0007701;98.6877;178.5324;25.4774;334.6793;2.0056E-5;1.8E-7;0;Amateur
14.40881832;0.0007649;98.6876;179.5201;22.7555;337.3971;1.8296E-5;1.3E-7;0;Amateur
14.40881933;0.0007593;98.6874;180.5783;19.8312;340.317;1.6573E-5;7.0E-8;0;Amateur
14.40882025;0.0007537;98.6873;181.4248;17.4584;342.6861;1.4824E-5;2.0E-8;0;Amateur
14.40882046;0.0007534;98.6873;181.5659;17.0837;343.0603;1.505E-5;2.0E-8;0;Amateur
14.40882089;0.0007508;98.6873;181.9892;15.8487;344.2934;1.4375E-5;0;0;Amateur
14.40882174;0.0007459;98.6871;182.8357;13.4463;346.6923;1.4727E-5;1.0E-8;0;Amateur
14.40882206;0.000744;98.6871;183.0473;12.8175;347.3201;1.4242E-5;0;0;Amateur
14.40882265;0.0007408;98.6871;183.6117;11.2229;348.9123;1.358E-5;-2.0E-8;0;Amateur
14.40882331;0.0007347;98.6869;184.5993;8.4576;351.6734;1.2616E-5;-5.0E-8;0;Amateur
14.40882384;0.0007283;98.6868;185.6574;5.4112;354.7154;1.0498E-5;-1.2E-7;0;Amateur
